{
  "type": "FeatureCollection",
  "features": [
    {
      "type": "Feature",
      "properties": {
        "Name": "Soluos I",
        "FolderPath": "landfills_.kmz/landfills",
        "SymbolID": 0,
        "AltMode": -1,
        "Base": 0.0,
        "Snippet": "Ikotun, Lagos 102213, Lagos, Nigeria",
        "PopupInfo": "<!DOCTYPE html><html><head></head><body><script type=\"text/javascript\">window.location.href=\"https://www.google.com/earth/rpc/entity?lat=6.57164885&lng=3.25150785&fid=0x103b9aac4636b27d:0xf4a96315d2c9fbd5&hl=en&gl=us&client=earth-client&cv=7.3.7.1155&use",
        "HasLabel": -1,
        "LabelID": 0,
        "Status": ""
      },
      "geometry": {
        "type": "Point",
        "coordinates": [
          3.2517626000000632,
          6.571504200000049
        ]
      }
    },
    {
      "type": "Feature",
      "properties": {
        "Name": "Soluos II",
        "FolderPath": "landfills_.kmz/landfills",
        "SymbolID": 0,
        "AltMode": -1,
        "Base": 0.0,
        "Snippet": "H7C3+9GV, Ikotun, Lagos 102213, Lagos, Nigeria",
        "PopupInfo": "<!DOCTYPE html><html><head></head><body><script type=\"text/javascript\">window.location.href=\"https://www.google.com/earth/rpc/entity?lat=6.570991299999999&lng=3.2538052999999993&fid=0x103b9aab84555555:0x330d5a9c20ca3ea4&hl=en&gl=us&client=earth-client&cv",
        "HasLabel": -1,
        "LabelID": 0,
        "Status": "Scheduled for decomissioning"
      },
      "geometry": {
        "type": "Point",
        "coordinates": [
          3.253811800000051,
          6.570989000000054
        ]
      }
    },
    {
      "type": "Feature",
      "properties": {
        "Name": "Soluos III",
        "FolderPath": "landfills_.kmz/landfills",
        "SymbolID": 1,
        "AltMode": -1,
        "Base": 0.0,
        "Snippet": "",
        "PopupInfo": "",
        "HasLabel": -1,
        "LabelID": 0,
        "Status": "Being decomissioned"
      },
      "geometry": {
        "type": "Point",
        "coordinates": [
          3.2533291820000727,
          6.564522411000041
        ]
      }
    },
    {
      "type": "Feature",
      "properties": {
        "Name": "Isolo",
        "FolderPath": "landfills_.kmz/landfills",
        "SymbolID": 0,
        "AltMode": -1,
        "Base": 0.0,
        "Snippet": "G8J9+54F, Egbe Rd, Isolo, Lagos 102214, Lagos, Nigeria",
        "PopupInfo": "<!DOCTYPE html><html><head></head><body><script type=\"text/javascript\">window.location.href=\"https://www.google.com/earth/rpc/entity?lat=6.57915&lng=3.3153000000000006&fid=0x103b8e5de6aaaaab:0x813ab3c44053a24&hl=en&gl=us&client=earth-client&cv=7.3.7.1155",
        "HasLabel": -1,
        "LabelID": 0,
        "Status": "Involved in environmental studies and investigations for rehabilitation."
      },
      "geometry": {
        "type": "Point",
        "coordinates": [
          3.3178029000000606,
          6.530444300000056
        ]
      }
    },
    {
      "type": "Feature",
      "properties": {
        "Name": "Olusosun",
        "FolderPath": "landfills_.kmz/landfills",
        "SymbolID": 0,
        "AltMode": -1,
        "Base": 0.0,
        "Snippet": "Alh. Abayomi Adelaja Dr, Onigbongbo, Lagos 101233, Lagos, Nigeria",
        "PopupInfo": "<!DOCTYPE html><html><head></head><body><script type=\"text/javascript\">window.location.href=\"https://www.google.com/earth/rpc/entity?lat=6.757477949999999&lng=3.2549189999999997&fid=0x103b9258678e6d0f:0x5b6f5a0764475136&hl=en&gl=us&client=earth-client&cv",
        "HasLabel": -1,
        "LabelID": 0,
        "Status": "Scheduled for decomissioning"
      },
      "geometry": {
        "type": "Point",
        "coordinates": [
          3.3773153000000207,
          6.594333000000063
        ]
      }
    },
    {
      "type": "Feature",
      "properties": {
        "Name": "Abule egba",
        "FolderPath": "landfills_.kmz/landfills",
        "SymbolID": 1,
        "AltMode": -1,
        "Base": 0.0,
        "Snippet": "",
        "PopupInfo": "",
        "HasLabel": -1,
        "LabelID": 0,
        "Status": "Closed/ Dormant"
      },
      "geometry": {
        "type": "Point",
        "coordinates": [
          3.302178708000042,
          6.639721759000054
        ]
      }
    },
    {
      "type": "Feature",
      "properties": {
        "Name": "Ewu-Elepe",
        "FolderPath": "Ewu-Elepe .kmz",
        "SymbolID": 0,
        "AltMode": -1,
        "Base": 0.0,
        "Snippet": "Ikorodu",
        "PopupInfo": "",
        "HasLabel": -1,
        "LabelID": 0,
        "Status": "Active"
      },
      "geometry": {
        "type": "Point",
        "coordinates": [
          3.5805890530000397,
          6.59878788900005
        ]
      }
    }
  ]
}