{"type":"FeatureCollection","features":[{"type":"Feature","geometry":{"type":"Point","coordinates":[3.31626058,6.62387368]},"properties":{"lganame":"Agege","ch4_2018":0.039758246,"no2_2018":0.0001025254,"co_2018":0.0513811401,"isi_2018":0.5776460116,"hotspots_2018":0.3923275306,"ch4_2019":0.0401229384,"no2_2019":9.64678e-05,"co_2019":0.0539782089,"isi_2019":0.6114955573,"hotspots_2019":0.8512187401,"ch4_2020":0.0403033896,"no2_2020":9.06424e-05,"co_2020":0.0580850548,"isi_2020":0.633684352,"hotspots_2020":1.0,"ch4_2021":0.0406513011,"no2_2021":0.0001109922,"co_2021":0.0555423063,"isi_2021":0.6965109741,"hotspots_2021":1.0,"ch4_2022":0.0410742607,"no2_2022":0.0001066002,"co_2022":0.0540195807,"isi_2022":0.7101375065,"hotspots_2022":1.0,"ch4_2023":0.041006969,"no2_2023":0.0001029827,"co_2023":0.0522617889,"isi_2023":0.6956201444,"hotspots_2023":1.0,"ch4_2024":0.0413518666,"no2_2024":9.52565e-05,"co_2024":0.0567533321,"isi_2024":0.6994708754,"hotspots_2024":1.0,"ch4_2025":0.0411286167,"no2_2025":8.72362e-05,"co_2025":0.0529056726,"isi_2025":0.6678439495,"hotspots_2025":1.0}},{"type":"Feature","geometry":{"type":"Point","coordinates":[3.33712246,6.45530194]},"properties":{"lganame":"Ajeromi/Ifelodun","ch4_2018":0,"no2_2018":7.03374e-05,"co_2018":0.049314251,"isi_2018":0,"hotspots_2018":0,"ch4_2019":0.039836649,"no2_2019":6.5507e-05,"co_2019":0.0524845385,"isi_2019":0.5271939117,"hotspots_2019":0.0,"ch4_2020":0,"no2_2020":6.73003e-05,"co_2020":0.0560688997,"isi_2020":0,"hotspots_2020":0,"ch4_2021":0,"no2_2021":7.26491e-05,"co_2021":0.0538746162,"isi_2021":0,"hotspots_2021":0,"ch4_2022":0.0411766199,"no2_2022":7.23748e-05,"co_2022":0.0531705822,"isi_2022":0.6575460318,"hotspots_2022":0.0,"ch4_2023":0.0412398293,"no2_2023":7.07959e-05,"co_2023":0.0516078593,"isi_2023":0.6304692905,"hotspots_2023":0.2840310078,"ch4_2024":0.0412589115,"no2_2024":6.77991e-05,"co_2024":0.0551440446,"isi_2024":0.6393763037,"hotspots_2024":0.2049612403,"ch4_2025":0.0409925963,"no2_2025":5.18593e-05,"co_2025":0.0518108102,"isi_2025":0.5932230316,"hotspots_2025":0.0}},{"type":"Feature","geometry":{"type":"Point","coordinates":[3.25563844,6.57402705]},"properties":{"lganame":"Alimosho","ch4_2018":0.0394357481,"no2_2018":7.74314e-05,"co_2018":0.0507592145,"isi_2018":0.502534729,"hotspots_2018":0.0271189833,"ch4_2019":0.0400857802,"no2_2019":6.40262e-05,"co_2019":0.0527767559,"isi_2019":0.5398695892,"hotspots_2019":0.0290318482,"ch4_2020":0.0402289668,"no2_2020":6.43534e-05,"co_2020":0.0571720318,"isi_2020":0.5784515688,"hotspots_2020":0.0334856337,"ch4_2021":0.0405784358,"no2_2021":7.50431e-05,"co_2021":0.0546254193,"isi_2021":0.6166159398,"hotspots_2021":0.1571951677,"ch4_2022":0.0410271248,"no2_2022":7.51568e-05,"co_2022":0.0535967604,"isi_2022":0.6437305053,"hotspots_2022":0.2075851262,"ch4_2023":0.04113095,"no2_2023":7.53554e-05,"co_2023":0.0514898591,"isi_2023":0.6386852556,"hotspots_2023":0.4357741826,"ch4_2024":0.0413514238,"no2_2024":6.8817e-05,"co_2024":0.0558815949,"isi_2024":0.6444286008,"hotspots_2024":0.3809715399,"ch4_2025":0.0412192941,"no2_2025":5.72942e-05,"co_2025":0.0521582712,"isi_2025":0.6065092449,"hotspots_2025":0.2311536507}},{"type":"Feature","geometry":{"type":"Point","coordinates":[3.27865453,6.4366614]},"properties":{"lganame":"Amuwo Odofin","ch4_2018":0,"no2_2018":5.49329e-05,"co_2018":0.0483818601,"isi_2018":0,"hotspots_2018":0,"ch4_2019":0.0399366686,"no2_2019":4.86399e-05,"co_2019":0.0525409625,"isi_2019":0.5129809163,"hotspots_2019":0.0,"ch4_2020":0,"no2_2020":5.08496e-05,"co_2020":0.0564092379,"isi_2020":0,"hotspots_2020":0,"ch4_2021":0,"no2_2021":5.35893e-05,"co_2021":0.05338022,"isi_2021":0,"hotspots_2021":0,"ch4_2022":0.0411317371,"no2_2022":5.31458e-05,"co_2022":0.0534070023,"isi_2022":0.6305293515,"hotspots_2022":0.0026560425,"ch4_2023":0.0410901221,"no2_2023":5.36736e-05,"co_2023":0.0517022634,"isi_2023":0.5922193658,"hotspots_2023":0.0308782158,"ch4_2024":0.0411255054,"no2_2024":4.94854e-05,"co_2024":0.0553453043,"isi_2024":0.6025527758,"hotspots_2024":0.0391485612,"ch4_2025":0.0408535721,"no2_2025":3.7507e-05,"co_2025":0.0518342896,"isi_2025":0.5494380874,"hotspots_2025":0.0}},{"type":"Feature","geometry":{"type":"Point","coordinates":[3.37104123,6.43557444]},"properties":{"lganame":"Apapa","ch4_2018":0,"no2_2018":6.86946e-05,"co_2018":0.0489346209,"isi_2018":0,"hotspots_2018":0,"ch4_2019":0.0398366496,"no2_2019":6.46293e-05,"co_2019":0.0523148693,"isi_2019":0.5410633774,"hotspots_2019":0.0,"ch4_2020":0,"no2_2020":6.33722e-05,"co_2020":0.0563015065,"isi_2020":0,"hotspots_2020":0,"ch4_2021":0,"no2_2021":6.81302e-05,"co_2021":0.0538611907,"isi_2021":0,"hotspots_2021":0,"ch4_2022":0.0411766201,"no2_2022":6.63391e-05,"co_2022":0.0535160526,"isi_2022":0.6577601164,"hotspots_2022":0.0,"ch4_2023":0.0411120801,"no2_2023":6.49115e-05,"co_2023":0.0516444351,"isi_2023":0.6185820595,"hotspots_2023":0.1583203733,"ch4_2024":0.0412000488,"no2_2024":6.28413e-05,"co_2024":0.0553374051,"isi_2024":0.6305417266,"hotspots_2024":0.2105754277,"ch4_2025":0.0408668818,"no2_2025":4.85399e-05,"co_2025":0.051948019,"isi_2025":0.5794822642,"hotspots_2025":0.0016588906}},{"type":"Feature","geometry":{"type":"Point","coordinates":[2.91467478,6.44098356]},"properties":{"lganame":"Badagry","ch4_2018":0,"no2_2018":2.40761e-05,"co_2018":0.0458348436,"isi_2018":0,"hotspots_2018":0,"ch4_2019":0.0398081617,"no2_2019":2.40452e-05,"co_2019":0.050563472,"isi_2019":0.431114661,"hotspots_2019":0.0,"ch4_2020":0.0398040752,"no2_2020":2.48062e-05,"co_2020":0.0544059533,"isi_2020":0.4418959155,"hotspots_2020":0.0,"ch4_2021":0.0399210133,"no2_2021":2.70547e-05,"co_2021":0.0519115101,"isi_2021":0.4508092687,"hotspots_2021":0.0,"ch4_2022":0.0405514026,"no2_2022":2.71158e-05,"co_2022":0.0510230982,"isi_2022":0.5117545344,"hotspots_2022":0.0,"ch4_2023":0.0406360264,"no2_2023":2.82929e-05,"co_2023":0.0499103477,"isi_2023":0.5107202031,"hotspots_2023":0.0,"ch4_2024":0.0408033226,"no2_2024":2.59291e-05,"co_2024":0.0535270379,"isi_2024":0.5360809877,"hotspots_2024":0.0,"ch4_2025":0.0405973766,"no2_2025":2.437e-05,"co_2025":0.0510889014,"isi_2025":0.5044510659,"hotspots_2025":0.0}},{"type":"Feature","geometry":{"type":"Point","coordinates":[3.96932051,6.5539194]},"properties":{"lganame":"Epe","ch4_2018":0.038981638,"no2_2018":2.71454e-05,"co_2018":0.0454690707,"isi_2018":0.3331120793,"hotspots_2018":0.0,"ch4_2019":0.0393412157,"no2_2019":2.83301e-05,"co_2019":0.049256021,"isi_2019":0.3826111411,"hotspots_2019":0.0,"ch4_2020":0.0396999653,"no2_2020":2.76607e-05,"co_2020":0.0537692587,"isi_2020":0.4360531902,"hotspots_2020":0.0,"ch4_2021":0.0400459935,"no2_2021":3.18291e-05,"co_2021":0.0518360718,"isi_2021":0.4700369622,"hotspots_2021":0.0,"ch4_2022":0.0401939934,"no2_2022":3.10031e-05,"co_2022":0.051672837,"isi_2022":0.4794557009,"hotspots_2022":0.0,"ch4_2023":0.0404286127,"no2_2023":3.21265e-05,"co_2023":0.0492147135,"isi_2023":0.4956113544,"hotspots_2023":0.0,"ch4_2024":0.0405061678,"no2_2024":3.16208e-05,"co_2024":0.0536467441,"isi_2024":0.5203369294,"hotspots_2024":0.0,"ch4_2025":0.0400786795,"no2_2025":3.36885e-05,"co_2025":0.0511549142,"isi_2025":0.4734458477,"hotspots_2025":0.0}},{"type":"Feature","geometry":{"type":"Point","coordinates":[3.54337696,6.45282973]},"properties":{"lganame":"Eti Osa","ch4_2018":0,"no2_2018":5.10777e-05,"co_2018":0.0478263631,"isi_2018":0,"hotspots_2018":0,"ch4_2019":0,"no2_2019":4.87567e-05,"co_2019":0.0514447709,"isi_2019":0,"hotspots_2019":0,"ch4_2020":0,"no2_2020":4.60574e-05,"co_2020":0.0558636282,"isi_2020":0,"hotspots_2020":0,"ch4_2021":0,"no2_2021":5.21888e-05,"co_2021":0.0532611923,"isi_2021":0,"hotspots_2021":0,"ch4_2022":0,"no2_2022":5.17984e-05,"co_2022":0.0529193096,"isi_2022":0,"hotspots_2022":0,"ch4_2023":0.0411792287,"no2_2023":5.0446e-05,"co_2023":0.0512886678,"isi_2023":0.589356562,"hotspots_2023":0.0283119542,"ch4_2024":0.0412232384,"no2_2024":4.96894e-05,"co_2024":0.055542218,"isi_2024":0.605767929,"hotspots_2024":0.0767471742,"ch4_2025":0.040928837,"no2_2025":4.36188e-05,"co_2025":0.0523892758,"isi_2025":0.5734730098,"hotspots_2025":0.0}},{"type":"Feature","geometry":{"type":"Point","coordinates":[3.90023665,6.45560014]},"properties":{"lganame":"Ibeju Lekki","ch4_2018":0,"no2_2018":2.60856e-05,"co_2018":0.0458369226,"isi_2018":0,"hotspots_2018":0,"ch4_2019":0,"no2_2019":2.71712e-05,"co_2019":0.0501777763,"isi_2019":0,"hotspots_2019":0,"ch4_2020":0,"no2_2020":2.6799e-05,"co_2020":0.0550846857,"isi_2020":0,"hotspots_2020":0,"ch4_2021":0.0399777604,"no2_2021":2.91887e-05,"co_2021":0.0525190718,"isi_2021":0.4617058843,"hotspots_2021":0.0,"ch4_2022":0.0399575189,"no2_2022":2.94073e-05,"co_2022":0.0521185287,"isi_2022":0.4584699654,"hotspots_2022":0.0,"ch4_2023":0.0408435102,"no2_2023":2.92977e-05,"co_2023":0.0498944369,"isi_2023":0.5278937817,"hotspots_2023":0.0,"ch4_2024":0.0408009142,"no2_2024":3.11231e-05,"co_2024":0.0542447223,"isi_2024":0.5472680668,"hotspots_2024":0.0,"ch4_2025":0.0405642054,"no2_2025":2.97159e-05,"co_2025":0.052021977,"isi_2025":0.5155492008,"hotspots_2025":0.0}},{"type":"Feature","geometry":{"type":"Point","coordinates":[3.30920035,6.66376873]},"properties":{"lganame":"Ifako/Ijaye","ch4_2018":0.0394065665,"no2_2018":7.30677e-05,"co_2018":0.0506708134,"isi_2018":0.4779406709,"hotspots_2018":0.0565447075,"ch4_2019":0.0400526228,"no2_2019":7.92672e-05,"co_2019":0.0531755842,"isi_2019":0.5680088219,"hotspots_2019":0.1135239474,"ch4_2020":0.0402846797,"no2_2020":7.34754e-05,"co_2020":0.0576669701,"isi_2020":0.5975617702,"hotspots_2020":0.3017251779,"ch4_2021":0.0406239762,"no2_2021":8.92287e-05,"co_2021":0.0556066704,"isi_2021":0.6519226954,"hotspots_2021":0.5878875618,"ch4_2022":0.0410047066,"no2_2022":9.03622e-05,"co_2022":0.0536045928,"isi_2022":0.6762078265,"hotspots_2022":0.6567740379,"ch4_2023":0.0409277993,"no2_2023":8.73459e-05,"co_2023":0.0519111635,"isi_2023":0.6613275885,"hotspots_2023":0.8131258294,"ch4_2024":0.0413323782,"no2_2024":7.98423e-05,"co_2024":0.056247525,"isi_2024":0.6673913357,"hotspots_2024":0.7974423935,"ch4_2025":0.04107816,"no2_2025":7.65336e-05,"co_2025":0.0528970941,"isi_2025":0.646997701,"hotspots_2025":0.8505247919}},{"type":"Feature","geometry":{"type":"Point","coordinates":[3.34941845,6.60323523]},"properties":{"lganame":"Ikeja","ch4_2018":0.0398900512,"no2_2018":0.0001074305,"co_2018":0.0509721413,"isi_2018":0.614466136,"hotspots_2018":0.9537295572,"ch4_2019":0.0401449438,"no2_2019":9.90683e-05,"co_2019":0.0542572266,"isi_2019":0.6188659332,"hotspots_2019":0.8786308174,"ch4_2020":0.0403051644,"no2_2020":9.45444e-05,"co_2020":0.0575061796,"isi_2020":0.6313313804,"hotspots_2020":0.9781771502,"ch4_2021":0.0405910346,"no2_2021":0.0001214867,"co_2021":0.0566158377,"isi_2021":0.7094690989,"hotspots_2021":1.0,"ch4_2022":0.0410873574,"no2_2022":0.000113435,"co_2022":0.0548466942,"isi_2022":0.724403753,"hotspots_2022":1.0,"ch4_2023":0.0411495967,"no2_2023":0.0001075458,"co_2023":0.0524266708,"isi_2023":0.7049086473,"hotspots_2023":1.0,"ch4_2024":0.0412550547,"no2_2024":9.70228e-05,"co_2024":0.0565304034,"isi_2024":0.7019765272,"hotspots_2024":1.0,"ch4_2025":0.041089139,"no2_2025":9.43993e-05,"co_2025":0.0529636894,"isi_2025":0.6820137915,"hotspots_2025":1.0}},{"type":"Feature","geometry":{"type":"Point","coordinates":[3.56725896,6.6120044]},"properties":{"lganame":"Ikorodu","ch4_2018":0.0394456502,"no2_2018":4.82162e-05,"co_2018":0.0489279369,"isi_2018":0.4291013644,"hotspots_2018":0.0,"ch4_2019":0.0396714932,"no2_2019":5.08344e-05,"co_2019":0.0522665031,"isi_2019":0.4710407516,"hotspots_2019":0.0,"ch4_2020":0.0397842937,"no2_2020":4.95195e-05,"co_2020":0.0560499264,"isi_2020":0.4746017687,"hotspots_2020":0.0,"ch4_2021":0.0403589393,"no2_2021":6.1023e-05,"co_2021":0.0546876304,"isi_2021":0.5876856848,"hotspots_2021":0.0,"ch4_2022":0.0407207581,"no2_2022":5.72036e-05,"co_2022":0.0537343,"isi_2022":0.5882589165,"hotspots_2022":0.0,"ch4_2023":0.0408973066,"no2_2023":5.59035e-05,"co_2023":0.0515240279,"isi_2023":0.5922853231,"hotspots_2023":0.0006644891,"ch4_2024":0.0410859212,"no2_2024":5.19495e-05,"co_2024":0.055248247,"isi_2024":0.6070279741,"hotspots_2024":0.0,"ch4_2025":0.0408160944,"no2_2025":5.7214e-05,"co_2025":0.0529650441,"isi_2025":0.589717845,"hotspots_2025":0.2077792024}},{"type":"Feature","geometry":{"type":"Point","coordinates":[3.39961179,6.60174654]},"properties":{"lganame":"Kosofe","ch4_2018":0,"no2_2018":8.24643e-05,"co_2018":0.0508224816,"isi_2018":0,"hotspots_2018":0,"ch4_2019":0.0402011894,"no2_2019":8.6551e-05,"co_2019":0.0543753956,"isi_2019":0.6024420072,"hotspots_2019":0.4365967366,"ch4_2020":0.040221041,"no2_2020":7.79294e-05,"co_2020":0.0572598219,"isi_2020":0.5955530429,"hotspots_2020":0.1124260355,"ch4_2021":0.0405324117,"no2_2021":0.0001039159,"co_2021":0.0572024266,"isi_2021":0.6813233859,"hotspots_2021":0.9617419617,"ch4_2022":0.0410580098,"no2_2022":9.64845e-05,"co_2022":0.0550863192,"isi_2022":0.7218954955,"hotspots_2022":0.9813333333,"ch4_2023":0.0412009406,"no2_2023":8.96129e-05,"co_2023":0.0529185213,"isi_2023":0.6725174585,"hotspots_2023":0.9752578624,"ch4_2024":0.0411616653,"no2_2024":8.01646e-05,"co_2024":0.0565146942,"isi_2024":0.6691311694,"hotspots_2024":0.8507878251,"ch4_2025":0.0409262879,"no2_2025":8.54808e-05,"co_2025":0.0533448686,"isi_2025":0.6598830149,"hotspots_2025":0.9608935012}},{"type":"Feature","geometry":{"type":"Point","coordinates":[3.39487281,6.45409781]},"properties":{"lganame":"Lagos Island","ch4_2018":0,"no2_2018":8.26242e-05,"co_2018":0.0485297332,"isi_2018":0,"hotspots_2018":0,"ch4_2019":0,"no2_2019":7.86982e-05,"co_2019":0.052002623,"isi_2019":0,"hotspots_2019":0,"ch4_2020":0,"no2_2020":7.25114e-05,"co_2020":0.0555144127,"isi_2020":0,"hotspots_2020":0,"ch4_2021":0,"no2_2021":8.36165e-05,"co_2021":0.054719709,"isi_2021":0,"hotspots_2021":0,"ch4_2022":0,"no2_2022":8.11126e-05,"co_2022":0.0531732102,"isi_2022":0,"hotspots_2022":0,"ch4_2023":0.0412106347,"no2_2023":7.55827e-05,"co_2023":0.0516674177,"isi_2023":0.6400249632,"hotspots_2023":0.7613200307,"ch4_2024":0.0412375972,"no2_2024":7.58806e-05,"co_2024":0.0553855411,"isi_2024":0.6560965674,"hotspots_2024":0.9969301612,"ch4_2025":0.040932684,"no2_2025":6.05668e-05,"co_2025":0.0517008424,"isi_2025":0.6079708371,"hotspots_2025":0.0}},{"type":"Feature","geometry":{"type":"Point","coordinates":[3.38293872,6.50032174]},"properties":{"lganame":"Lagos Mainland","ch4_2018":0,"no2_2018":8.61263e-05,"co_2018":0.0505830477,"isi_2018":0,"hotspots_2018":0,"ch4_2019":0,"no2_2019":8.93195e-05,"co_2019":0.0530123461,"isi_2019":0,"hotspots_2019":0,"ch4_2020":0,"no2_2020":7.86004e-05,"co_2020":0.055742792,"isi_2020":0,"hotspots_2020":0,"ch4_2021":0,"no2_2021":9.83788e-05,"co_2021":0.0552666082,"isi_2021":0,"hotspots_2021":0,"ch4_2022":0,"no2_2022":9.40561e-05,"co_2022":0.0538672122,"isi_2022":0,"hotspots_2022":0,"ch4_2023":0.0410675139,"no2_2023":8.4557e-05,"co_2023":0.052065191,"isi_2023":0.659132478,"hotspots_2023":1.0,"ch4_2024":0.0409941605,"no2_2024":8.23345e-05,"co_2024":0.0556203876,"isi_2024":0.6687992647,"hotspots_2024":1.0,"ch4_2025":0.0409313425,"no2_2025":7.48603e-05,"co_2025":0.0525215622,"isi_2025":0.6371997654,"hotspots_2025":0.9138526477}},{"type":"Feature","geometry":{"type":"Point","coordinates":[3.34972235,6.53185506]},"properties":{"lganame":"Mushin","ch4_2018":0,"no2_2018":0.0001040649,"co_2018":0.0513385612,"isi_2018":0,"hotspots_2018":0,"ch4_2019":0.0400907922,"no2_2019":9.26943e-05,"co_2019":0.0537864688,"isi_2019":0.5971722621,"hotspots_2019":0.5207231041,"ch4_2020":0,"no2_2020":9.24996e-05,"co_2020":0.0568712959,"isi_2020":0,"hotspots_2020":0,"ch4_2021":0,"no2_2021":0.0001097056,"co_2021":0.0557173335,"isi_2021":0,"hotspots_2021":0,"ch4_2022":0.0413730599,"no2_2022":0.000102842,"co_2022":0.0544512029,"isi_2022":0.6879636175,"hotspots_2022":0.9883870968,"ch4_2023":0.0412269483,"no2_2023":9.77233e-05,"co_2023":0.0520285811,"isi_2023":0.6845810253,"hotspots_2023":1.0,"ch4_2024":0.0412066227,"no2_2024":9.03466e-05,"co_2024":0.0560313091,"isi_2024":0.6869155636,"hotspots_2024":1.0,"ch4_2025":0.0411205123,"no2_2025":7.93136e-05,"co_2025":0.0527897415,"isi_2025":0.6519559884,"hotspots_2025":0.9295294385}},{"type":"Feature","geometry":{"type":"Point","coordinates":[3.157429,6.45542299]},"properties":{"lganame":"Ojo","ch4_2018":0,"no2_2018":4.08689e-05,"co_2018":0.0477668475,"isi_2018":0,"hotspots_2018":0,"ch4_2019":0.0400166189,"no2_2019":3.69057e-05,"co_2019":0.0521473073,"isi_2019":0.4976504178,"hotspots_2019":0.0,"ch4_2020":0.0401907391,"no2_2020":3.82505e-05,"co_2020":0.0560384396,"isi_2020":0.5369511157,"hotspots_2020":0.0,"ch4_2021":0.0401017896,"no2_2021":4.23529e-05,"co_2021":0.053041532,"isi_2021":0.5188279472,"hotspots_2021":0.0,"ch4_2022":0.0408136124,"no2_2022":4.38286e-05,"co_2022":0.0524242321,"isi_2022":0.5832520676,"hotspots_2022":0.0,"ch4_2023":0.0409628186,"no2_2023":4.38312e-05,"co_2023":0.0507693848,"isi_2023":0.5644839763,"hotspots_2023":0.0,"ch4_2024":0.0410065361,"no2_2024":3.97812e-05,"co_2024":0.0548045098,"isi_2024":0.5749659741,"hotspots_2024":0.0,"ch4_2025":0.0407419215,"no2_2025":3.19001e-05,"co_2025":0.0515149368,"isi_2025":0.5243115473,"hotspots_2025":0.0}},{"type":"Feature","geometry":{"type":"Point","coordinates":[3.31339855,6.53897374]},"properties":{"lganame":"Oshodi/Isolo","ch4_2018":0.0394721269,"no2_2018":0.000102689,"co_2018":0.0511188114,"isi_2018":0.5752684701,"hotspots_2018":0.3632653061,"ch4_2019":0.0400565441,"no2_2019":8.51597e-05,"co_2019":0.0534503941,"isi_2019":0.580985013,"hotspots_2019":0.229825694,"ch4_2020":0.0402008927,"no2_2020":8.39354e-05,"co_2020":0.0573377072,"isi_2020":0.6184674793,"hotspots_2020":0.4899478779,"ch4_2021":0.0406629095,"no2_2021":9.67742e-05,"co_2021":0.0552007669,"isi_2021":0.6353533613,"hotspots_2021":0.0,"ch4_2022":0.0412659274,"no2_2022":9.27814e-05,"co_2022":0.0540907005,"isi_2022":0.6813235502,"hotspots_2022":0.7715605361,"ch4_2023":0.0412760726,"no2_2023":9.39798e-05,"co_2023":0.0515926229,"isi_2023":0.6754855667,"hotspots_2023":0.9688688042,"ch4_2024":0.0412975735,"no2_2024":8.58524e-05,"co_2024":0.0559242799,"isi_2024":0.6777308788,"hotspots_2024":0.9634889893,"ch4_2025":0.0411074894,"no2_2025":7.00855e-05,"co_2025":0.0525840725,"isi_2025":0.6331553936,"hotspots_2025":0.6495229897}},{"type":"Feature","geometry":{"type":"Point","coordinates":[3.38309837,6.53803806]},"properties":{"lganame":"Shomolu","ch4_2018":0,"no2_2018":8.87231e-05,"co_2018":0.0518426212,"isi_2018":0,"hotspots_2018":0,"ch4_2019":0.0403281419,"no2_2019":9.30309e-05,"co_2019":0.0537259154,"isi_2019":0.642722221,"hotspots_2019":1.0,"ch4_2020":0,"no2_2020":8.34079e-05,"co_2020":0.056380933,"isi_2020":0,"hotspots_2020":0,"ch4_2021":0,"no2_2021":0.0001068299,"co_2021":0.0563336607,"isi_2021":0,"hotspots_2021":0,"ch4_2022":0,"no2_2022":0.0001012135,"co_2022":0.0552388564,"isi_2022":0,"hotspots_2022":0,"ch4_2023":0.0411707939,"no2_2023":9.0547e-05,"co_2023":0.0528102412,"isi_2023":0.6738840768,"hotspots_2023":1.0,"ch4_2024":0.041113892,"no2_2024":8.3867e-05,"co_2024":0.0563874906,"isi_2024":0.6756962904,"hotspots_2024":1.0,"ch4_2025":0.0410318566,"no2_2025":8.22806e-05,"co_2025":0.0532265741,"isi_2025":0.6554312743,"hotspots_2025":0.9141452345}},{"type":"Feature","geometry":{"type":"Point","coordinates":[3.34637661,6.49278437]},"properties":{"lganame":"Surulere","ch4_2018":0,"no2_2018":8.81433e-05,"co_2018":0.0501583971,"isi_2018":0,"hotspots_2018":0,"ch4_2019":0.0398366488,"no2_2019":8.29556e-05,"co_2019":0.0532771868,"isi_2019":0.5496559631,"hotspots_2019":0.0,"ch4_2020":0,"no2_2020":8.15335e-05,"co_2020":0.0566127954,"isi_2020":0,"hotspots_2020":0,"ch4_2021":0,"no2_2021":9.26726e-05,"co_2021":0.0547597257,"isi_2021":0,"hotspots_2021":0,"ch4_2022":0.0411766187,"no2_2022":9.11502e-05,"co_2022":0.0536590383,"isi_2022":0.6644820306,"hotspots_2022":0.3419732441,"ch4_2023":0.0412457156,"no2_2023":8.57025e-05,"co_2023":0.0515076806,"isi_2023":0.659036889,"hotspots_2023":0.9687439332,"ch4_2024":0.041151139,"no2_2024":8.2526e-05,"co_2024":0.0553308907,"isi_2024":0.6687903988,"hotspots_2024":0.9687439332,"ch4_2025":0.0410402166,"no2_2025":6.66837e-05,"co_2025":0.0523525933,"isi_2025":0.6247291245,"hotspots_2025":0.5426130848}}]}