{"type": "FeatureCollection", "features": [{"type": "Feature", "geometry": {"type": "Point", "coordinates": [3.394179500083908, 6.455057500103578]}, "properties": {"osm_id": "27565124", "code": 1001, "fclass": "city", "population": 10404112, "name": "Lagos"}}, {"type": "Feature", "geometry": {"type": "Point", "coordinates": [3.985545500024841, 6.607126499888125]}, "properties": {"osm_id": "501329415", "code": 1003, "fclass": "village", "population": 0, "name": "Odo-Mola"}}, {"type": "Feature", "geometry": {"type": "Point", "coordinates": [3.5328165000814806, 6.631181000302945]}, "properties": {"osm_id": "501329425", "code": 1003, "fclass": "village", "population": 0, "name": "Itamaga"}}, {"type": "Feature", "geometry": {"type": "Point", "coordinates": [3.7882679002434543, 6.509618200419652]}, "properties": {"osm_id": "501329825", "code": 1003, "fclass": "village", "population": 0, "name": "Araromi-Tope"}}, {"type": "Feature", "geometry": {"type": "Point", "coordinates": [3.9302655003526183, 6.4354570000405715]}, "properties": {"osm_id": "501329985", "code": 1003, "fclass": "village", "population": 0, "name": "Akodo"}}, {"type": "Feature", "geometry": {"type": "Point", "coordinates": [3.777175400424426, 6.509033300246642]}, "properties": {"osm_id": "501330073", "code": 1003, "fclass": "village", "population": 0, "name": "Arapagi"}}, {"type": "Feature", "geometry": {"type": "Point", "coordinates": [3.6293858003144805, 6.575062700283468]}, "properties": {"osm_id": "501330080", "code": 1003, "fclass": "village", "population": 0, "name": "Agura"}}, {"type": "Feature", "geometry": {"type": "Point", "coordinates": [3.635580999663432, 6.471021999765526]}, "properties": {"osm_id": "501330278", "code": 1010, "fclass": "suburb", "population": 0, "name": "Sangotedo"}}, {"type": "Feature", "geometry": {"type": "Point", "coordinates": [3.97359950041664, 6.495316000433149]}, "properties": {"osm_id": "501330508", "code": 1003, "fclass": "village", "population": 0, "name": "Omu"}}, {"type": "Feature", "geometry": {"type": "Point", "coordinates": [3.4007453999802806, 6.57526419968309]}, "properties": {"osm_id": "501330852", "code": 1010, "fclass": "suburb", "population": 0, "name": "Agboyi"}}, {"type": "Feature", "geometry": {"type": "Point", "coordinates": [3.7392976996291623, 6.545796500008521]}, "properties": {"osm_id": "501330905", "code": 1003, "fclass": "village", "population": 0, "name": "Ibon"}}, {"type": "Feature", "geometry": {"type": "Point", "coordinates": [3.989839400368055, 6.642356899651247]}, "properties": {"osm_id": "501333531", "code": 1003, "fclass": "village", "population": 0, "name": "Eredo"}}, {"type": "Feature", "geometry": {"type": "Point", "coordinates": [3.6756968998920456, 6.518073500391779]}, "properties": {"osm_id": "501333683", "code": 1003, "fclass": "village", "population": 0, "name": "Isan Town"}}, {"type": "Feature", "geometry": {"type": "Point", "coordinates": [2.9355956995819383, 6.417556000109357]}, "properties": {"osm_id": "501354684", "code": 1003, "fclass": "village", "population": 0, "name": "Tawpo"}}, {"type": "Feature", "geometry": {"type": "Point", "coordinates": [3.369948200149338, 6.573189399870955]}, "properties": {"osm_id": "501361574", "code": 1010, "fclass": "suburb", "population": 0, "name": "Maryland"}}, {"type": "Feature", "geometry": {"type": "Point", "coordinates": [2.9502947002402493, 6.431450499640903]}, "properties": {"osm_id": "501361972", "code": 1003, "fclass": "village", "population": 0, "name": "Mosafejo"}}, {"type": "Feature", "geometry": {"type": "Point", "coordinates": [3.367221700321238, 6.483194800299827]}, "properties": {"osm_id": "501365132", "code": 1003, "fclass": "village", "population": 0, "name": "Alagbede"}}, {"type": "Feature", "geometry": {"type": "Point", "coordinates": [2.820229000168297, 6.431883099625395]}, "properties": {"osm_id": "501366580", "code": 1003, "fclass": "village", "population": 0, "name": "Appa"}}, {"type": "Feature", "geometry": {"type": "Point", "coordinates": [2.8732483002688696, 6.461030299808556]}, "properties": {"osm_id": "501366942", "code": 1003, "fclass": "village", "population": 0, "name": "Tofa"}}, {"type": "Feature", "geometry": {"type": "Point", "coordinates": [3.2552779995800734, 6.582778000304529]}, "properties": {"osm_id": "501379075", "code": 1003, "fclass": "village", "population": 0, "name": "Ashipa"}}, {"type": "Feature", "geometry": {"type": "Point", "coordinates": [3.372489400065831, 6.629907599855869]}, "properties": {"osm_id": "501379109", "code": 1010, "fclass": "suburb", "population": 0, "name": "Olowoira"}}, {"type": "Feature", "geometry": {"type": "Point", "coordinates": [3.3540056997033503, 6.634640999782334]}, "properties": {"osm_id": "501379116", "code": 1010, "fclass": "suburb", "population": 0, "name": "Aguda"}}, {"type": "Feature", "geometry": {"type": "Point", "coordinates": [3.566666999882159, 6.58333299981814]}, "properties": {"osm_id": "501379981", "code": 1003, "fclass": "village", "population": 0, "name": "Igbe Ewoliwo"}}, {"type": "Feature", "geometry": {"type": "Point", "coordinates": [3.6666669996823202, 6.616667000082032]}, "properties": {"osm_id": "501380815", "code": 1003, "fclass": "village", "population": 0, "name": "Oko Ito"}}, {"type": "Feature", "geometry": {"type": "Point", "coordinates": [3.5305541997166188, 6.533620800059907]}, "properties": {"osm_id": "501381183", "code": 1003, "fclass": "village", "population": 0, "name": "Ajebo"}}, {"type": "Feature", "geometry": {"type": "Point", "coordinates": [3.4333329998181625, 6.449999999800184]}, "properties": {"osm_id": "501382702", "code": 1003, "fclass": "village", "population": 0, "name": "Falomo"}}, {"type": "Feature", "geometry": {"type": "Point", "coordinates": [3.9833929996872257, 6.4283635002753385]}, "properties": {"osm_id": "501392216", "code": 1003, "fclass": "village", "population": 0, "name": "Idaso"}}, {"type": "Feature", "geometry": {"type": "Point", "coordinates": [3.6137357998672996, 6.450348399858797]}, "properties": {"osm_id": "501392258", "code": 1010, "fclass": "suburb", "population": 0, "name": "Ogombo"}}, {"type": "Feature", "geometry": {"type": "Point", "coordinates": [3.402199899605705, 6.550209100069935]}, "properties": {"osm_id": "501392318", "code": 1010, "fclass": "suburb", "population": 0, "name": "Oworon\u1e63oki"}}, {"type": "Feature", "geometry": {"type": "Point", "coordinates": [3.653346499641316, 6.586198999784074]}, "properties": {"osm_id": "501392343", "code": 1003, "fclass": "village", "population": 0, "name": "Igbalu"}}, {"type": "Feature", "geometry": {"type": "Point", "coordinates": [3.5184235000445483, 6.572201499999267]}, "properties": {"osm_id": "501392550", "code": 1003, "fclass": "village", "population": 0, "name": "Ason"}}, {"type": "Feature", "geometry": {"type": "Point", "coordinates": [3.580470100414857, 6.507251600281165]}, "properties": {"osm_id": "501392560", "code": 1010, "fclass": "suburb", "population": 0, "name": "Langbasa"}}, {"type": "Feature", "geometry": {"type": "Point", "coordinates": [3.731846800289645, 6.467312999595322]}, "properties": {"osm_id": "501392570", "code": 1010, "fclass": "suburb", "population": 0, "name": "Lakowe"}}, {"type": "Feature", "geometry": {"type": "Point", "coordinates": [3.549578499648078, 6.447330499902705]}, "properties": {"osm_id": "501392682", "code": 1010, "fclass": "suburb", "population": 0, "name": "Ikota"}}, {"type": "Feature", "geometry": {"type": "Point", "coordinates": [3.6127427999402926, 6.488832500019896]}, "properties": {"osm_id": "501393179", "code": 1003, "fclass": "village", "population": 0, "name": "Iranla"}}, {"type": "Feature", "geometry": {"type": "Point", "coordinates": [3.4736916000873066, 6.55339060019611]}, "properties": {"osm_id": "501393260", "code": 1003, "fclass": "village", "population": 0, "name": "Ibeshe"}}, {"type": "Feature", "geometry": {"type": "Point", "coordinates": [3.5230460998976127, 6.5322871998944265]}, "properties": {"osm_id": "501393368", "code": 1003, "fclass": "village", "population": 0, "name": "Oreta"}}, {"type": "Feature", "geometry": {"type": "Point", "coordinates": [3.8883471995636683, 6.484867599560118]}, "properties": {"osm_id": "501393414", "code": 1010, "fclass": "suburb", "population": 0, "name": "Ibeju"}}, {"type": "Feature", "geometry": {"type": "Point", "coordinates": [3.5950716999989822, 6.583730199788931]}, "properties": {"osm_id": "501395906", "code": 1003, "fclass": "village", "population": 0, "name": "Abule-Eko"}}, {"type": "Feature", "geometry": {"type": "Point", "coordinates": [3.2570419999883597, 6.572244000160538]}, "properties": {"osm_id": "501395977", "code": 1003, "fclass": "village", "population": 0, "name": "Idimu"}}, {"type": "Feature", "geometry": {"type": "Point", "coordinates": [3.103388900177663, 6.452064399852247]}, "properties": {"osm_id": "501396105", "code": 1003, "fclass": "village", "population": 0, "name": "Idoluwo"}}, {"type": "Feature", "geometry": {"type": "Point", "coordinates": [3.3811131997144344, 6.470171799588911]}, "properties": {"osm_id": "501396306", "code": 1010, "fclass": "suburb", "population": 0, "name": "Iddo"}}, {"type": "Feature", "geometry": {"type": "Point", "coordinates": [3.7729970000115713, 6.6263419003584545]}, "properties": {"osm_id": "501397103", "code": 1003, "fclass": "village", "population": 0, "name": "Orugbo"}}, {"type": "Feature", "geometry": {"type": "Point", "coordinates": [3.225138000018717, 6.505040500119037]}, "properties": {"osm_id": "501397437", "code": 1003, "fclass": "village", "population": 0, "name": "Ijagemo"}}, {"type": "Feature", "geometry": {"type": "Point", "coordinates": [3.4674330003327327, 6.615050299631662]}, "properties": {"osm_id": "501397450", "code": 1003, "fclass": "village", "population": 0, "name": "Majidun"}}, {"type": "Feature", "geometry": {"type": "Point", "coordinates": [3.5766930998067323, 6.623702900068849]}, "properties": {"osm_id": "501397473", "code": 1003, "fclass": "village", "population": 0, "name": "Oke"}}, {"type": "Feature", "geometry": {"type": "Point", "coordinates": [3.5833330004176673, 6.650000000299826]}, "properties": {"osm_id": "501397491", "code": 1003, "fclass": "village", "population": 0, "name": "Agbaku"}}, {"type": "Feature", "geometry": {"type": "Point", "coordinates": [2.968614000036098, 6.483123900447708]}, "properties": {"osm_id": "501404930", "code": 1003, "fclass": "village", "population": 0, "name": "Ipota"}}, {"type": "Feature", "geometry": {"type": "Point", "coordinates": [3.5477468998995505, 6.638924700014968]}, "properties": {"osm_id": "501405944", "code": 1003, "fclass": "village", "population": 0, "name": "Parafa"}}, {"type": "Feature", "geometry": {"type": "Point", "coordinates": [2.7802859999989664, 6.423788899937847]}, "properties": {"osm_id": "501409020", "code": 1004, "fclass": "hamlet", "population": 0, "name": "Igbogbele"}}, {"type": "Feature", "geometry": {"type": "Point", "coordinates": [3.9408860998137243, 6.596179399759535]}, "properties": {"osm_id": "501414496", "code": 1003, "fclass": "village", "population": 0, "name": "Oko Orisa"}}, {"type": "Feature", "geometry": {"type": "Point", "coordinates": [4.0910130001498715, 6.5001105002993995]}, "properties": {"osm_id": "501422433", "code": 1003, "fclass": "village", "population": 0, "name": "Aba-Onigbagbo"}}, {"type": "Feature", "geometry": {"type": "Point", "coordinates": [4.118098400221015, 6.423118799792803]}, "properties": {"osm_id": "501422526", "code": 1003, "fclass": "village", "population": 0, "name": "Siriwon"}}, {"type": "Feature", "geometry": {"type": "Point", "coordinates": [4.318685499736091, 6.441338499672042]}, "properties": {"osm_id": "501422843", "code": 1003, "fclass": "village", "population": 0, "name": "Moba"}}, {"type": "Feature", "geometry": {"type": "Point", "coordinates": [3.340775300040093, 6.632607999559582]}, "properties": {"osm_id": "501422907", "code": 1010, "fclass": "suburb", "population": 0, "name": "Ogba"}}, {"type": "Feature", "geometry": {"type": "Point", "coordinates": [2.7097064000303703, 6.444807700115291]}, "properties": {"osm_id": "501424223", "code": 1004, "fclass": "hamlet", "population": 0, "name": "Pashi"}}, {"type": "Feature", "geometry": {"type": "Point", "coordinates": [2.7317880001161825, 6.42851409984587]}, "properties": {"osm_id": "501424914", "code": 1004, "fclass": "hamlet", "population": 0, "name": "Akawkaw"}}, {"type": "Feature", "geometry": {"type": "Point", "coordinates": [2.8609499004176087, 6.416703100167979]}, "properties": {"osm_id": "501429709", "code": 1003, "fclass": "village", "population": 0, "name": "Gbaj"}}, {"type": "Feature", "geometry": {"type": "Point", "coordinates": [3.2842278003727188, 6.446997900033125]}, "properties": {"osm_id": "501429768", "code": 1003, "fclass": "village", "population": 0, "name": "Isunba"}}, {"type": "Feature", "geometry": {"type": "Point", "coordinates": [3.382213700102227, 6.403971100286071]}, "properties": {"osm_id": "501429875", "code": 1003, "fclass": "village", "population": 0, "name": "Oko Agbo"}}, {"type": "Feature", "geometry": {"type": "Point", "coordinates": [3.7153629997027338, 6.516756999935637]}, "properties": {"osm_id": "501429888", "code": 1003, "fclass": "village", "population": 0, "name": "Ladeba"}}, {"type": "Feature", "geometry": {"type": "Point", "coordinates": [3.9617020003470884, 6.538392000290628]}, "properties": {"osm_id": "501429934", "code": 1003, "fclass": "village", "population": 0, "name": "Sabi"}}, {"type": "Feature", "geometry": {"type": "Point", "coordinates": [3.4808536003134236, 6.452134299658269]}, "properties": {"osm_id": "501430244", "code": 1003, "fclass": "village", "population": 0, "name": "Moba"}}, {"type": "Feature", "geometry": {"type": "Point", "coordinates": [3.6307232001156535, 6.487894599756032]}, "properties": {"osm_id": "501430503", "code": 1003, "fclass": "village", "population": 0, "name": "Okori Egun"}}, {"type": "Feature", "geometry": {"type": "Point", "coordinates": [3.7123140002909167, 6.6432885001642035]}, "properties": {"osm_id": "501430594", "code": 1003, "fclass": "village", "population": 0, "name": "Agbowa"}}, {"type": "Feature", "geometry": {"type": "Point", "coordinates": [3.2447605001969464, 6.450891999566181]}, "properties": {"osm_id": "501431965", "code": 1003, "fclass": "village", "population": 0, "name": "Aiyetoto-Asogun"}}, {"type": "Feature", "geometry": {"type": "Point", "coordinates": [3.0884469000044987, 6.451609199904681]}, "properties": {"osm_id": "501432037", "code": 1003, "fclass": "village", "population": 0, "name": "Ikotun"}}, {"type": "Feature", "geometry": {"type": "Point", "coordinates": [3.488539899896523, 6.429278799676922]}, "properties": {"osm_id": "501432097", "code": 1010, "fclass": "suburb", "population": 0, "name": "Ikate"}}, {"type": "Feature", "geometry": {"type": "Point", "coordinates": [3.633333000317748, 6.666666999982112]}, "properties": {"osm_id": "501433033", "code": 1003, "fclass": "village", "population": 0, "name": "Salabo"}}, {"type": "Feature", "geometry": {"type": "Point", "coordinates": [2.9166670002819046, 6.4833330000179785]}, "properties": {"osm_id": "501433270", "code": 1003, "fclass": "village", "population": 0, "name": "Ajibo"}}, {"type": "Feature", "geometry": {"type": "Point", "coordinates": [3.4682676997945805, 6.616928100251698]}, "properties": {"osm_id": "501440142", "code": 1003, "fclass": "village", "population": 0, "name": "Ologode"}}, {"type": "Feature", "geometry": {"type": "Point", "coordinates": [2.7231150003570406, 6.418671399565483]}, "properties": {"osm_id": "501448347", "code": 1004, "fclass": "hamlet", "population": 0, "name": "Ganme"}}, {"type": "Feature", "geometry": {"type": "Point", "coordinates": [3.2986109995979973, 6.659443999640928]}, "properties": {"osm_id": "501449268", "code": 1003, "fclass": "village", "population": 0, "name": "Jibowu"}}, {"type": "Feature", "geometry": {"type": "Point", "coordinates": [4.112122700202519, 6.462999500326703]}, "properties": {"osm_id": "501455729", "code": 1003, "fclass": "village", "population": 0, "name": "Imoba"}}, {"type": "Feature", "geometry": {"type": "Point", "coordinates": [4.000548500313073, 6.486647499982212]}, "properties": {"osm_id": "501455743", "code": 1003, "fclass": "village", "population": 0, "name": "Ilumawfin"}}, {"type": "Feature", "geometry": {"type": "Point", "coordinates": [4.099888600078884, 6.424332899843478]}, "properties": {"osm_id": "501455821", "code": 1003, "fclass": "village", "population": 0, "name": "Ebute Lekki"}}, {"type": "Feature", "geometry": {"type": "Point", "coordinates": [3.566666999882159, 6.58333299981814]}, "properties": {"osm_id": "501456995", "code": 1003, "fclass": "village", "population": 0, "name": "Igbe"}}, {"type": "Feature", "geometry": {"type": "Point", "coordinates": [4.0836022996064685, 6.546864499796868]}, "properties": {"osm_id": "501457214", "code": 1003, "fclass": "village", "population": 0, "name": "Emina"}}, {"type": "Feature", "geometry": {"type": "Point", "coordinates": [2.9166670002819046, 6.4833330000179785]}, "properties": {"osm_id": "501457495", "code": 1003, "fclass": "village", "population": 0, "name": "Erekiti"}}, {"type": "Feature", "geometry": {"type": "Point", "coordinates": [3.333271800253442, 6.449918999662145]}, "properties": {"osm_id": "501458212", "code": 1003, "fclass": "village", "population": 0, "name": "Alaiyabiagba"}}, {"type": "Feature", "geometry": {"type": "Point", "coordinates": [3.383611000147596, 6.600555999959454]}, "properties": {"osm_id": "501463132", "code": 1050, "fclass": "locality", "population": 0, "name": "Ikosi"}}, {"type": "Feature", "geometry": {"type": "Point", "coordinates": [2.842723399865065, 6.426611100222146]}, "properties": {"osm_id": "501463241", "code": 1003, "fclass": "village", "population": 0, "name": "Afowo Doforo"}}, {"type": "Feature", "geometry": {"type": "Point", "coordinates": [3.5883241001771466, 6.600451899835377]}, "properties": {"osm_id": "501463294", "code": 1003, "fclass": "village", "population": 0, "name": "Oke Eletu"}}, {"type": "Feature", "geometry": {"type": "Point", "coordinates": [3.990313100269418, 6.657914400329332]}, "properties": {"osm_id": "501463345", "code": 1003, "fclass": "village", "population": 0, "name": "Odo Ragun"}}, {"type": "Feature", "geometry": {"type": "Point", "coordinates": [3.7288112997017606, 6.430086300042774]}, "properties": {"osm_id": "501463348", "code": 1003, "fclass": "village", "population": 0, "name": "Iwerekun"}}, {"type": "Feature", "geometry": {"type": "Point", "coordinates": [3.390526800171756, 6.57500079994702]}, "properties": {"osm_id": "501463418", "code": 1010, "fclass": "suburb", "population": 0, "name": "Ogudu"}}, {"type": "Feature", "geometry": {"type": "Point", "coordinates": [3.1207994997971014, 6.4966575002434865]}, "properties": {"osm_id": "501463429", "code": 1003, "fclass": "village", "population": 0, "name": "Ijanikin"}}, {"type": "Feature", "geometry": {"type": "Point", "coordinates": [3.2548660003656664, 6.516155000053232]}, "properties": {"osm_id": "501463453", "code": 1003, "fclass": "village", "population": 0, "name": "Ijegun"}}, {"type": "Feature", "geometry": {"type": "Point", "coordinates": [3.591864099748477, 6.565578799821822]}, "properties": {"osm_id": "501463454", "code": 1003, "fclass": "village", "population": 0, "name": "Ijede"}}, {"type": "Feature", "geometry": {"type": "Point", "coordinates": [3.7061826995719684, 6.613196599943194]}, "properties": {"osm_id": "501463503", "code": 1003, "fclass": "village", "population": 0, "name": "Ikosi"}}, {"type": "Feature", "geometry": {"type": "Point", "coordinates": [3.5171268997866605, 6.591307399916616]}, "properties": {"osm_id": "501463673", "code": 1003, "fclass": "village", "population": 0, "name": "Igbogbo"}}, {"type": "Feature", "geometry": {"type": "Point", "coordinates": [3.850524500405413, 6.585713999901202]}, "properties": {"osm_id": "501463775", "code": 1003, "fclass": "village", "population": 0, "name": "Imare"}}, {"type": "Feature", "geometry": {"type": "Point", "coordinates": [3.682771000381422, 6.4260274995695]}, "properties": {"osm_id": "501463811", "code": 1003, "fclass": "village", "population": 0, "name": "Mosere Ikoga"}}, {"type": "Feature", "geometry": {"type": "Point", "coordinates": [3.6213030004331586, 6.426449000121295]}, "properties": {"osm_id": "501463844", "code": 1003, "fclass": "village", "population": 0, "name": "Mopo-Akinlade"}}, {"type": "Feature", "geometry": {"type": "Point", "coordinates": [3.6694485002481088, 6.663618499694053]}, "properties": {"osm_id": "501463850", "code": 1003, "fclass": "village", "population": 0, "name": "Imota"}}, {"type": "Feature", "geometry": {"type": "Point", "coordinates": [3.902729000343129, 6.437774499893294]}, "properties": {"osm_id": "501463920", "code": 1003, "fclass": "village", "population": 0, "name": "Orimedu"}}, {"type": "Feature", "geometry": {"type": "Point", "coordinates": [3.3802056003082726, 6.638498700154912]}, "properties": {"osm_id": "501464017", "code": 1003, "fclass": "village", "population": 0, "name": "Isheri"}}, {"type": "Feature", "geometry": {"type": "Point", "coordinates": [3.320338600446121, 6.62291649959684]}, "properties": {"osm_id": "501464088", "code": 1010, "fclass": "suburb", "population": 0, "name": "Agege"}}, {"type": "Feature", "geometry": {"type": "Point", "coordinates": [3.5828296004057734, 6.495867800158919]}, "properties": {"osm_id": "501464208", "code": 1003, "fclass": "village", "population": 0, "name": "Ado"}}, {"type": "Feature", "geometry": {"type": "Point", "coordinates": [3.7189072000073224, 6.496465000359535]}, "properties": {"osm_id": "501465035", "code": 1003, "fclass": "village", "population": 0, "name": "Dongo"}}, {"type": "Feature", "geometry": {"type": "Point", "coordinates": [3.500000000299849, 6.433333000117898]}, "properties": {"osm_id": "501465323", "code": 1003, "fclass": "village", "population": 0, "name": "Igboefon"}}, {"type": "Feature", "geometry": {"type": "Point", "coordinates": [4.000000000199918, 6.600000000399746]}, "properties": {"osm_id": "501465545", "code": 1003, "fclass": "village", "population": 0, "name": "Iwaye"}}, {"type": "Feature", "geometry": {"type": "Point", "coordinates": [3.4259904004366604, 6.430027899867753]}, "properties": {"osm_id": "501471396", "code": 1010, "fclass": "suburb", "population": 217362, "name": "Victoria Island"}}, {"type": "Feature", "geometry": {"type": "Point", "coordinates": [3.349984800258369, 6.483321299838167]}, "properties": {"osm_id": "501471579", "code": 1003, "fclass": "village", "population": 0, "name": "Agani"}}, {"type": "Feature", "geometry": {"type": "Point", "coordinates": [2.8528776999459637, 6.401123500449216]}, "properties": {"osm_id": "501472317", "code": 1003, "fclass": "village", "population": 0, "name": "Agaw Awusa"}}, {"type": "Feature", "geometry": {"type": "Point", "coordinates": [3.166666999782251, 6.499999999700265]}, "properties": {"osm_id": "501475382", "code": 1003, "fclass": "village", "population": 0, "name": "Isasi"}}, {"type": "Feature", "geometry": {"type": "Point", "coordinates": [4.1569774997119, 6.416192500183797]}, "properties": {"osm_id": "501478573", "code": 1003, "fclass": "village", "population": 0, "name": "Ilagbo"}}, {"type": "Feature", "geometry": {"type": "Point", "coordinates": [4.19398129959734, 6.39347500027111]}, "properties": {"osm_id": "501478596", "code": 1003, "fclass": "village", "population": 0, "name": "Otolu"}}, {"type": "Feature", "geometry": {"type": "Point", "coordinates": [4.0486259996901595, 6.61812549989196]}, "properties": {"osm_id": "501478741", "code": 1003, "fclass": "village", "population": 0, "name": "Fawosedi"}}, {"type": "Feature", "geometry": {"type": "Point", "coordinates": [4.026845200345747, 6.566483999836748]}, "properties": {"osm_id": "501478745", "code": 1003, "fclass": "village", "population": 0, "name": "Ere-Ise"}}, {"type": "Feature", "geometry": {"type": "Point", "coordinates": [3.3024967003624965, 6.621479800252644]}, "properties": {"osm_id": "501478797", "code": 1003, "fclass": "village", "population": 0, "name": "Alagba"}}, {"type": "Feature", "geometry": {"type": "Point", "coordinates": [3.23369780031328, 6.426983100289874]}, "properties": {"osm_id": "501478965", "code": 1003, "fclass": "village", "population": 0, "name": "Irede"}}, {"type": "Feature", "geometry": {"type": "Point", "coordinates": [3.376202100046953, 6.5909585996597]}, "properties": {"osm_id": "501479339", "code": 1010, "fclass": "suburb", "population": 0, "name": "Oshosun"}}, {"type": "Feature", "geometry": {"type": "Point", "coordinates": [3.2831863000077988, 6.415273199698447]}, "properties": {"osm_id": "501480498", "code": 1003, "fclass": "village", "population": 0, "name": "Elachi"}}, {"type": "Feature", "geometry": {"type": "Point", "coordinates": [3.731829199657909, 6.502384400120036]}, "properties": {"osm_id": "501480681", "code": 1003, "fclass": "village", "population": 0, "name": "Abegede"}}, {"type": "Feature", "geometry": {"type": "Point", "coordinates": [3.3912011999754554, 6.60082630019366]}, "properties": {"osm_id": "501483481", "code": 1010, "fclass": "suburb", "population": 0, "name": "Orisigun"}}, {"type": "Feature", "geometry": {"type": "Point", "coordinates": [3.017915500100287, 6.414419500259783]}, "properties": {"osm_id": "501483752", "code": 1003, "fclass": "village", "population": 0, "name": "Iworo"}}, {"type": "Feature", "geometry": {"type": "Point", "coordinates": [3.819499700151084, 6.440830700176718]}, "properties": {"osm_id": "501483763", "code": 1003, "fclass": "village", "population": 0, "name": "Igando"}}, {"type": "Feature", "geometry": {"type": "Point", "coordinates": [3.1605945003359466, 6.4535931996665]}, "properties": {"osm_id": "501483799", "code": 1003, "fclass": "village", "population": 0, "name": "Igbede"}}, {"type": "Feature", "geometry": {"type": "Point", "coordinates": [3.6602605001220354, 6.597888500154227]}, "properties": {"osm_id": "501483822", "code": 1003, "fclass": "village", "population": 0, "name": "Oke-Lisa"}}, {"type": "Feature", "geometry": {"type": "Point", "coordinates": [3.1902414996455377, 6.464334200363112]}, "properties": {"osm_id": "501483825", "code": 1010, "fclass": "suburb", "population": 0, "name": "Ojo"}}, {"type": "Feature", "geometry": {"type": "Point", "coordinates": [3.7136427000506274, 6.529776200111598]}, "properties": {"osm_id": "501483925", "code": 1003, "fclass": "village", "population": 0, "name": "Ladeda Ebute"}}, {"type": "Feature", "geometry": {"type": "Point", "coordinates": [3.3678243998762127, 6.466700599952787]}, "properties": {"osm_id": "501483931", "code": 1010, "fclass": "suburb", "population": 0, "name": "Ijora"}}, {"type": "Feature", "geometry": {"type": "Point", "coordinates": [3.504127099785876, 6.61912330040002]}, "properties": {"osm_id": "501483970", "code": 1001, "fclass": "city", "population": 535619, "name": "Ikorodu"}}, {"type": "Feature", "geometry": {"type": "Point", "coordinates": [3.56238610013844, 6.469471600034353]}, "properties": {"osm_id": "501483975", "code": 1010, "fclass": "suburb", "population": 0, "name": "Ajah"}}, {"type": "Feature", "geometry": {"type": "Point", "coordinates": [3.3565795000439493, 6.6096150004319725]}, "properties": {"osm_id": "501484003", "code": 1003, "fclass": "village", "population": 0, "name": "Alausa"}}, {"type": "Feature", "geometry": {"type": "Point", "coordinates": [3.7028214996125826, 6.621566000270718]}, "properties": {"osm_id": "501484519", "code": 1003, "fclass": "village", "population": 0, "name": "Ado"}}, {"type": "Feature", "geometry": {"type": "Point", "coordinates": [3.489337999649024, 6.667422499748625]}, "properties": {"osm_id": "501485345", "code": 1003, "fclass": "village", "population": 0, "name": "Agbede"}}, {"type": "Feature", "geometry": {"type": "Point", "coordinates": [3.541061999911392, 6.553679000185753]}, "properties": {"osm_id": "501485359", "code": 1003, "fclass": "village", "population": 0, "name": "Igbowore"}}, {"type": "Feature", "geometry": {"type": "Point", "coordinates": [3.360507600245626, 6.641781200442097]}, "properties": {"osm_id": "501485554", "code": 1010, "fclass": "suburb", "population": 0, "name": "Omole"}}, {"type": "Feature", "geometry": {"type": "Point", "coordinates": [3.650000000000034, 6.600000000399746]}, "properties": {"osm_id": "501485904", "code": 1003, "fclass": "village", "population": 0, "name": "Oke Agba"}}, {"type": "Feature", "geometry": {"type": "Point", "coordinates": [3.516666999982135, 6.549999999600345]}, "properties": {"osm_id": "501485968", "code": 1003, "fclass": "village", "population": 0, "name": "Ewu Ebi"}}, {"type": "Feature", "geometry": {"type": "Point", "coordinates": [3.350005900152212, 6.483313599842802]}, "properties": {"osm_id": "501491369", "code": 1003, "fclass": "village", "population": 0, "name": "Aqani"}}, {"type": "Feature", "geometry": {"type": "Point", "coordinates": [3.6159536998034696, 6.509925200187865]}, "properties": {"osm_id": "501492354", "code": 1010, "fclass": "suburb", "population": 0, "name": "Badore"}}, {"type": "Feature", "geometry": {"type": "Point", "coordinates": [3.605757899607454, 6.605333599765856]}, "properties": {"osm_id": "501493128", "code": 1003, "fclass": "village", "population": 0, "name": "Madigan"}}, {"type": "Feature", "geometry": {"type": "Point", "coordinates": [4.3410169998347214, 6.413605999617232]}, "properties": {"osm_id": "501494362", "code": 1003, "fclass": "village", "population": 0, "name": "Budo"}}, {"type": "Feature", "geometry": {"type": "Point", "coordinates": [4.1437759997626245, 6.454550000082463]}, "properties": {"osm_id": "501494364", "code": 1003, "fclass": "village", "population": 0, "name": "Aba-Oriyanrin"}}, {"type": "Feature", "geometry": {"type": "Point", "coordinates": [4.085458799783851, 6.558554299641287]}, "properties": {"osm_id": "501494495", "code": 1003, "fclass": "village", "population": 0, "name": "Saga"}}, {"type": "Feature", "geometry": {"type": "Point", "coordinates": [3.364142800250079, 6.570438600361172]}, "properties": {"osm_id": "501494530", "code": 1003, "fclass": "village", "population": 0, "name": "Onigbongbo"}}, {"type": "Feature", "geometry": {"type": "Point", "coordinates": [3.3500051995803233, 6.4833371000271995]}, "properties": {"osm_id": "501494802", "code": 1003, "fclass": "village", "population": 0, "name": "Animshaun"}}, {"type": "Feature", "geometry": {"type": "Point", "coordinates": [3.350000700272176, 6.483348099635123]}, "properties": {"osm_id": "501494804", "code": 1003, "fclass": "village", "population": 0, "name": "Animashawun"}}, {"type": "Feature", "geometry": {"type": "Point", "coordinates": [2.7369302003684766, 6.433333000117898]}, "properties": {"osm_id": "501494966", "code": 1003, "fclass": "village", "population": 0, "name": "Akoko"}}, {"type": "Feature", "geometry": {"type": "Point", "coordinates": [3.283903799820564, 6.575256399863008]}, "properties": {"osm_id": "501496440", "code": 1010, "fclass": "suburb", "population": 0, "name": "Idimu"}}, {"type": "Feature", "geometry": {"type": "Point", "coordinates": [3.6603420002831513, 6.573476199966706]}, "properties": {"osm_id": "501496466", "code": 1003, "fclass": "village", "population": 0, "name": "Ojagemo"}}, {"type": "Feature", "geometry": {"type": "Point", "coordinates": [3.9835344000925375, 6.62143389975472]}, "properties": {"osm_id": "501496482", "code": 1003, "fclass": "village", "population": 0, "name": "Poka"}}, {"type": "Feature", "geometry": {"type": "Point", "coordinates": [3.755404999940822, 6.641341000286957]}, "properties": {"osm_id": "501496486", "code": 1003, "fclass": "village", "population": 0, "name": "Oke-Odo"}}, {"type": "Feature", "geometry": {"type": "Point", "coordinates": [3.8769830999901274, 6.636154000306931]}, "properties": {"osm_id": "501496490", "code": 1003, "fclass": "village", "population": 0, "name": "Ketu"}}, {"type": "Feature", "geometry": {"type": "Point", "coordinates": [3.232676999643843, 6.5486169996748345]}, "properties": {"osm_id": "501496544", "code": 1003, "fclass": "village", "population": 0, "name": "Egan"}}, {"type": "Feature", "geometry": {"type": "Point", "coordinates": [3.8402169999146736, 6.597190000318335]}, "properties": {"osm_id": "501496575", "code": 1003, "fclass": "village", "population": 0, "name": "Ologogoro"}}, {"type": "Feature", "geometry": {"type": "Point", "coordinates": [3.3856122003427913, 6.4862553002419645]}, "properties": {"osm_id": "501496581", "code": 1010, "fclass": "suburb", "population": 0, "name": "Ebute-Metta"}}, {"type": "Feature", "geometry": {"type": "Point", "coordinates": [3.4904655003825837, 6.603671200265751]}, "properties": {"osm_id": "501496605", "code": 1003, "fclass": "village", "population": 0, "name": "Ebute Ikorodu"}}, {"type": "Feature", "geometry": {"type": "Point", "coordinates": [3.6217969998317017, 6.601219199606419]}, "properties": {"osm_id": "501496607", "code": 1003, "fclass": "village", "population": 0, "name": "Gberigbe"}}, {"type": "Feature", "geometry": {"type": "Point", "coordinates": [3.2549051001902853, 6.412437399866178]}, "properties": {"osm_id": "501496649", "code": 1003, "fclass": "village", "population": 0, "name": "Ibese"}}, {"type": "Feature", "geometry": {"type": "Point", "coordinates": [3.9756939998782173, 6.585728600394646]}, "properties": {"osm_id": "501496653", "code": 1001, "fclass": "city", "population": 181409, "name": "Epe"}}, {"type": "Feature", "geometry": {"type": "Point", "coordinates": [3.7372049997110253, 6.6602859997991]}, "properties": {"osm_id": "501496731", "code": 1003, "fclass": "village", "population": 0, "name": "Agbole"}}, {"type": "Feature", "geometry": {"type": "Point", "coordinates": [3.7643899996987784, 6.436116800250204]}, "properties": {"osm_id": "501497058", "code": 1003, "fclass": "village", "population": 0, "name": "Iwesolu"}}, {"type": "Feature", "geometry": {"type": "Point", "coordinates": [3.5657077002501865, 6.58875699993564]}, "properties": {"osm_id": "501497080", "code": 1003, "fclass": "village", "population": 0, "name": "Igbokin"}}, {"type": "Feature", "geometry": {"type": "Point", "coordinates": [3.311369499802595, 6.4425756997088115]}, "properties": {"osm_id": "501497108", "code": 1010, "fclass": "suburb", "population": 0, "name": "Kirikiri"}}, {"type": "Feature", "geometry": {"type": "Point", "coordinates": [3.803164699591264, 6.594390200347505]}, "properties": {"osm_id": "501497310", "code": 1003, "fclass": "village", "population": 0, "name": "Oriba"}}, {"type": "Feature", "geometry": {"type": "Point", "coordinates": [3.5530041000592405, 6.537589199781792]}, "properties": {"osm_id": "501497398", "code": 1003, "fclass": "village", "population": 0, "name": "Baiyeku"}}, {"type": "Feature", "geometry": {"type": "Point", "coordinates": [2.768456100168919, 6.416719299655995]}, "properties": {"osm_id": "501498745", "code": 1003, "fclass": "village", "population": 0, "name": "Wesere"}}, {"type": "Feature", "geometry": {"type": "Point", "coordinates": [3.366624099922319, 6.517263900108958]}, "properties": {"osm_id": "501499101", "code": 1010, "fclass": "suburb", "population": 0, "name": "Tinubu"}}, {"type": "Feature", "geometry": {"type": "Point", "coordinates": [3.4551384999418815, 6.4288783000935155]}, "properties": {"osm_id": "501501091", "code": 1010, "fclass": "suburb", "population": 0, "name": "Maroko"}}, {"type": "Feature", "geometry": {"type": "Point", "coordinates": [3.325890100148058, 6.6692510004333485]}, "properties": {"osm_id": "501501269", "code": 1003, "fclass": "village", "population": 0, "name": "Iju"}}, {"type": "Feature", "geometry": {"type": "Point", "coordinates": [3.533332999618267, 6.566667000181951]}, "properties": {"osm_id": "501501470", "code": 1003, "fclass": "village", "population": 0, "name": "Ilado Ogunu"}}, {"type": "Feature", "geometry": {"type": "Point", "coordinates": [3.4643795996388462, 6.66610650021488]}, "properties": {"osm_id": "501501588", "code": 1003, "fclass": "village", "population": 0, "name": "Ishawo"}}, {"type": "Feature", "geometry": {"type": "Point", "coordinates": [3.394721999920421, 6.535000000349783]}, "properties": {"osm_id": "501502941", "code": 1010, "fclass": "suburb", "population": 0, "name": "Bariga"}}, {"type": "Feature", "geometry": {"type": "Point", "coordinates": [4.077148699852671, 6.548442700270471]}, "properties": {"osm_id": "501507702", "code": 1003, "fclass": "village", "population": 0, "name": "Ori-Ita"}}, {"type": "Feature", "geometry": {"type": "Point", "coordinates": [4.212993099851701, 6.417052799746955]}, "properties": {"osm_id": "501507830", "code": 1003, "fclass": "village", "population": 0, "name": "Ise"}}, {"type": "Feature", "geometry": {"type": "Point", "coordinates": [4.124538299702806, 6.436678800086611]}, "properties": {"osm_id": "501507911", "code": 1003, "fclass": "village", "population": 0, "name": "Ide"}}, {"type": "Feature", "geometry": {"type": "Point", "coordinates": [3.3938322997208843, 6.402266199725375]}, "properties": {"osm_id": "501507968", "code": 1010, "fclass": "suburb", "population": 0, "name": "Tarkwa"}}, {"type": "Feature", "geometry": {"type": "Point", "coordinates": [2.849999999800218, 6.399999999900103]}, "properties": {"osm_id": "501509129", "code": 1004, "fclass": "hamlet", "population": 0, "name": "Henume"}}, {"type": "Feature", "geometry": {"type": "Point", "coordinates": [3.3821361003008406, 6.60842319997073]}, "properties": {"osm_id": "501512869", "code": 1003, "fclass": "village", "population": 0, "name": "Shangisha"}}, {"type": "Feature", "geometry": {"type": "Point", "coordinates": [3.8731309996959453, 6.607580000116968]}, "properties": {"osm_id": "501512990", "code": 1003, "fclass": "village", "population": 0, "name": "Orita-Bodun"}}, {"type": "Feature", "geometry": {"type": "Point", "coordinates": [3.934863000127393, 6.498092999892094]}, "properties": {"osm_id": "501513018", "code": 1003, "fclass": "village", "population": 0, "name": "Ogogoro"}}, {"type": "Feature", "geometry": {"type": "Point", "coordinates": [3.794873300162749, 6.656323399805103]}, "properties": {"osm_id": "501513029", "code": 1003, "fclass": "village", "population": 0, "name": "Itoikin"}}, {"type": "Feature", "geometry": {"type": "Point", "coordinates": [3.582766600198511, 6.674794200292183]}, "properties": {"osm_id": "501513074", "code": 1003, "fclass": "village", "population": 0, "name": "Igbaga"}}, {"type": "Feature", "geometry": {"type": "Point", "coordinates": [3.364161599678141, 6.482423699993831]}, "properties": {"osm_id": "501513077", "code": 1003, "fclass": "village", "population": 0, "name": "Iganmu"}}, {"type": "Feature", "geometry": {"type": "Point", "coordinates": [3.2894909999097877, 6.6636024998555285]}, "properties": {"osm_id": "501513101", "code": 1003, "fclass": "village", "population": 0, "name": "Ijaiye"}}, {"type": "Feature", "geometry": {"type": "Point", "coordinates": [3.519204000064576, 6.546078500422482]}, "properties": {"osm_id": "501513103", "code": 1003, "fclass": "village", "population": 0, "name": "Igbopa"}}, {"type": "Feature", "geometry": {"type": "Point", "coordinates": [3.7691005001879603, 6.643388899578099]}, "properties": {"osm_id": "501513197", "code": 1003, "fclass": "village", "population": 0, "name": "Odo"}}, {"type": "Feature", "geometry": {"type": "Point", "coordinates": [3.7714232997455497, 6.646026499623304]}, "properties": {"osm_id": "501513200", "code": 1003, "fclass": "village", "population": 0, "name": "Ajebo"}}, {"type": "Feature", "geometry": {"type": "Point", "coordinates": [3.073190500441285, 6.407660499732344]}, "properties": {"osm_id": "501513340", "code": 1003, "fclass": "village", "population": 0, "name": "Tafi"}}, {"type": "Feature", "geometry": {"type": "Point", "coordinates": [3.604759299602051, 6.617630500447262]}, "properties": {"osm_id": "501513419", "code": 1003, "fclass": "village", "population": 0, "name": "Mowo"}}, {"type": "Feature", "geometry": {"type": "Point", "coordinates": [3.5743216999865126, 6.605763199611999]}, "properties": {"osm_id": "501513428", "code": 1003, "fclass": "village", "population": 0, "name": "Ginti"}}, {"type": "Feature", "geometry": {"type": "Point", "coordinates": [3.5309224999734283, 6.561749000016391]}, "properties": {"osm_id": "501514466", "code": 1003, "fclass": "village", "population": 0, "name": "Morekete"}}, {"type": "Feature", "geometry": {"type": "Point", "coordinates": [3.602399500136869, 6.562317799626783]}, "properties": {"osm_id": "501514469", "code": 1003, "fclass": "village", "population": 0, "name": "Igbin"}}, {"type": "Feature", "geometry": {"type": "Point", "coordinates": [3.3644637997646214, 6.601001399994686]}, "properties": {"osm_id": "501514506", "code": 1010, "fclass": "suburb", "population": 0, "name": "Oregun"}}, {"type": "Feature", "geometry": {"type": "Point", "coordinates": [3.5999514996620405, 6.641864699796088]}, "properties": {"osm_id": "501514672", "code": 1003, "fclass": "village", "population": 0, "name": "Agunfoye"}}, {"type": "Feature", "geometry": {"type": "Point", "coordinates": [3.883332999818151, 6.63333299971822]}, "properties": {"osm_id": "501514696", "code": 1003, "fclass": "village", "population": 0, "name": "Sekungba"}}, {"type": "Feature", "geometry": {"type": "Point", "coordinates": [2.9847538000478835, 6.483385300091584]}, "properties": {"osm_id": "501514741", "code": 1003, "fclass": "village", "population": 0, "name": "Ijotan"}}, {"type": "Feature", "geometry": {"type": "Point", "coordinates": [3.5677666998733457, 6.616842799555627]}, "properties": {"osm_id": "501514743", "code": 1003, "fclass": "village", "population": 0, "name": "Elesin"}}, {"type": "Feature", "geometry": {"type": "Point", "coordinates": [3.3789577999625635, 6.539222800292066]}, "properties": {"osm_id": "501516175", "code": 1010, "fclass": "suburb", "population": 0, "name": "Somolu"}}, {"type": "Feature", "geometry": {"type": "Point", "coordinates": [3.636436299895365, 6.425840699588662]}, "properties": {"osm_id": "501516924", "code": 1003, "fclass": "village", "population": 0, "name": "Mopo Onijebu"}}, {"type": "Feature", "geometry": {"type": "Point", "coordinates": [2.849177800015525, 6.401940600178591]}, "properties": {"osm_id": "501517217", "code": 1004, "fclass": "hamlet", "population": 0, "name": "Ago Hausa"}}, {"type": "Feature", "geometry": {"type": "Point", "coordinates": [2.948147700156312, 6.433040199745449]}, "properties": {"osm_id": "501517332", "code": 1003, "fclass": "village", "population": 0, "name": "Mosafejaw"}}, {"type": "Feature", "geometry": {"type": "Point", "coordinates": [2.8846128000407134, 6.416733900149438]}, "properties": {"osm_id": "501517604", "code": 1001, "fclass": "city", "population": 0, "name": "Badagry"}}, {"type": "Feature", "geometry": {"type": "Point", "coordinates": [2.9350169004096642, 6.43345849961014]}, "properties": {"osm_id": "501517799", "code": 1003, "fclass": "village", "population": 0, "name": "Itoga"}}, {"type": "Feature", "geometry": {"type": "Point", "coordinates": [3.2952634000859007, 6.611337099627519]}, "properties": {"osm_id": "501517933", "code": 1010, "fclass": "suburb", "population": 0, "name": "Alimosho"}}, {"type": "Feature", "geometry": {"type": "Point", "coordinates": [2.7333330003177707, 6.4166669995823895]}, "properties": {"osm_id": "501517988", "code": 1004, "fclass": "hamlet", "population": 0, "name": "Kweme"}}, {"type": "Feature", "geometry": {"type": "Point", "coordinates": [2.7851043004231997, 6.424055899660118]}, "properties": {"osm_id": "501518603", "code": 1004, "fclass": "hamlet", "population": 0, "name": "Ropoji"}}, {"type": "Feature", "geometry": {"type": "Point", "coordinates": [4.089987999646496, 6.451539700296962]}, "properties": {"osm_id": "501519467", "code": 1003, "fclass": "village", "population": 0, "name": "Ladugbo"}}, {"type": "Feature", "geometry": {"type": "Point", "coordinates": [2.7131478995559632, 6.427696900291778]}, "properties": {"osm_id": "501519947", "code": 1004, "fclass": "hamlet", "population": 0, "name": "Pasi"}}, {"type": "Feature", "geometry": {"type": "Point", "coordinates": [3.2730560001343747, 6.545278000379483]}, "properties": {"osm_id": "501521552", "code": 1050, "fclass": "locality", "population": 0, "name": "Bolorunpelu"}}, {"type": "Feature", "geometry": {"type": "Point", "coordinates": [3.6310666997684393, 6.501153400009457]}, "properties": {"osm_id": "501521650", "code": 1003, "fclass": "village", "population": 0, "name": "Ito-Omu"}}, {"type": "Feature", "geometry": {"type": "Point", "coordinates": [3.6252304998877207, 6.5864692001935055]}, "properties": {"osm_id": "501521682", "code": 1003, "fclass": "village", "population": 0, "name": "Oke Oloku"}}, {"type": "Feature", "geometry": {"type": "Point", "coordinates": [3.667628499955356, 6.492489600314855]}, "properties": {"osm_id": "501521701", "code": 1003, "fclass": "village", "population": 0, "name": "Oko-Abe"}}, {"type": "Feature", "geometry": {"type": "Point", "coordinates": [3.8964324995602624, 6.614904800116506]}, "properties": {"osm_id": "501521745", "code": 1003, "fclass": "village", "population": 0, "name": "Ejirin"}}, {"type": "Feature", "geometry": {"type": "Point", "coordinates": [3.8928350000352907, 6.51385700020046]}, "properties": {"osm_id": "501521748", "code": 1003, "fclass": "village", "population": 0, "name": "Okunegun"}}, {"type": "Feature", "geometry": {"type": "Point", "coordinates": [3.8333329999180705, 6.566667000181951]}, "properties": {"osm_id": "501521771", "code": 1003, "fclass": "village", "population": 0, "name": "Seidu"}}, {"type": "Feature", "geometry": {"type": "Point", "coordinates": [3.7532349996955077, 6.55971439989969]}, "properties": {"osm_id": "501521830", "code": 1003, "fclass": "village", "population": 0, "name": "Moyopa"}}, {"type": "Feature", "geometry": {"type": "Point", "coordinates": [3.943918999562243, 6.6020610001151]}, "properties": {"osm_id": "501521845", "code": 1003, "fclass": "village", "population": 0, "name": "Tewon"}}, {"type": "Feature", "geometry": {"type": "Point", "coordinates": [3.403616400176759, 6.583122400178695]}, "properties": {"osm_id": "501521901", "code": 1010, "fclass": "suburb", "population": 0, "name": "Oruba"}}, {"type": "Feature", "geometry": {"type": "Point", "coordinates": [3.618719500004943, 6.659608000009257]}, "properties": {"osm_id": "501521905", "code": 1003, "fclass": "village", "population": 0, "name": "Isiwu"}}, {"type": "Feature", "geometry": {"type": "Point", "coordinates": [3.4915922996449353, 6.424867400210417]}, "properties": {"osm_id": "501522376", "code": 1003, "fclass": "village", "population": 0, "name": "Alaguntan"}}, {"type": "Feature", "geometry": {"type": "Point", "coordinates": [3.3103078995899295, 6.610478700331782]}, "properties": {"osm_id": "501522405", "code": 1003, "fclass": "village", "population": 0, "name": "Akowonjo"}}, {"type": "Feature", "geometry": {"type": "Point", "coordinates": [3.5781188004423257, 6.652024799604874]}, "properties": {"osm_id": "501522846", "code": 1003, "fclass": "village", "population": 0, "name": "Maya"}}, {"type": "Feature", "geometry": {"type": "Point", "coordinates": [3.6000000000999535, 6.650000000299826]}, "properties": {"osm_id": "501522847", "code": 1003, "fclass": "village", "population": 0, "name": "Ajebo"}}, {"type": "Feature", "geometry": {"type": "Point", "coordinates": [3.466743900210872, 6.428494900219505]}, "properties": {"osm_id": "501525038", "code": 1003, "fclass": "village", "population": 0, "name": "Ilado"}}, {"type": "Feature", "geometry": {"type": "Point", "coordinates": [2.8081967996426442, 6.415771399830305]}, "properties": {"osm_id": "501525888", "code": 1004, "fclass": "hamlet", "population": 0, "name": "Angorin"}}, {"type": "Feature", "geometry": {"type": "Point", "coordinates": [2.8999999997002988, 6.433333000117898]}, "properties": {"osm_id": "501526100", "code": 1003, "fclass": "village", "population": 0, "name": "Ajara"}}, {"type": "Feature", "geometry": {"type": "Point", "coordinates": [3.395263800084365, 6.605885299666909]}, "properties": {"osm_id": "501526166", "code": 1010, "fclass": "suburb", "population": 0, "name": "Erukan"}}, {"type": "Feature", "geometry": {"type": "Point", "coordinates": [3.4333324997950854, 6.433319399670609]}, "properties": {"osm_id": "501526508", "code": 1003, "fclass": "village", "population": 0, "name": "Itirin"}}, {"type": "Feature", "geometry": {"type": "Point", "coordinates": [4.217142400001819, 6.38943040009292]}, "properties": {"osm_id": "501527756", "code": 1003, "fclass": "village", "population": 0, "name": "Akodo"}}, {"type": "Feature", "geometry": {"type": "Point", "coordinates": [4.269173599681949, 6.408208999845499]}, "properties": {"osm_id": "501527934", "code": 1003, "fclass": "village", "population": 0, "name": "Obada"}}, {"type": "Feature", "geometry": {"type": "Point", "coordinates": [3.359027899817761, 6.502458200285787]}, "properties": {"osm_id": "501527946", "code": 1010, "fclass": "suburb", "population": 0, "name": "Surulere"}}, {"type": "Feature", "geometry": {"type": "Point", "coordinates": [3.484940199730488, 6.5414478003757495]}, "properties": {"osm_id": "501527949", "code": 1003, "fclass": "village", "population": 0, "name": "Ilemere"}}, {"type": "Feature", "geometry": {"type": "Point", "coordinates": [3.3046224000037796, 6.647894299782138]}, "properties": {"osm_id": "501527950", "code": 1010, "fclass": "suburb", "population": 0, "name": "Abule Egba"}}, {"type": "Feature", "geometry": {"type": "Point", "coordinates": [3.254871200245759, 6.4237806000946875]}, "properties": {"osm_id": "501528321", "code": 1003, "fclass": "village", "population": 0, "name": "Ibasa"}}, {"type": "Feature", "geometry": {"type": "Point", "coordinates": [3.343281500141188, 6.5974727004048646]}, "properties": {"osm_id": "501540907", "code": 1001, "fclass": "city", "population": 861300, "name": "Ikeja"}}, {"type": "Feature", "geometry": {"type": "Point", "coordinates": [3.137414999802445, 6.4949214004023474]}, "properties": {"osm_id": "889257358", "code": 1002, "fclass": "town", "population": 0, "name": "Alasia"}}, {"type": "Feature", "geometry": {"type": "Point", "coordinates": [2.959480800098902, 6.411754899868811]}, "properties": {"osm_id": "889334159", "code": 1003, "fclass": "village", "population": 0, "name": "Akarakumoh"}}, {"type": "Feature", "geometry": {"type": "Point", "coordinates": [3.379582499632704, 6.432329200232459]}, "properties": {"osm_id": "1474044555", "code": 1003, "fclass": "village", "population": 0, "name": "Ilado"}}, {"type": "Feature", "geometry": {"type": "Point", "coordinates": [3.377782100063939, 6.6180808998137195]}, "properties": {"osm_id": "1484920806", "code": 1010, "fclass": "suburb", "population": 0, "name": "Magodo"}}, {"type": "Feature", "geometry": {"type": "Point", "coordinates": [3.427244800007543, 6.450330300103303]}, "properties": {"osm_id": "1651621700", "code": 1020, "fclass": "island", "population": 0, "name": "Ikoyi Island"}}, {"type": "Feature", "geometry": {"type": "Point", "coordinates": [3.417264599681573, 6.429601200335185]}, "properties": {"osm_id": "1652204785", "code": 1020, "fclass": "island", "population": 0, "name": "Victoria Island"}}, {"type": "Feature", "geometry": {"type": "Point", "coordinates": [3.3867059000572795, 6.42640289997388]}, "properties": {"osm_id": "1656042172", "code": 1020, "fclass": "island", "population": 0, "name": "Calabash Island"}}, {"type": "Feature", "geometry": {"type": "Point", "coordinates": [3.3805923996196157, 6.472371699594305]}, "properties": {"osm_id": "1783114181", "code": 1020, "fclass": "island", "population": 0, "name": "Iddo Island"}}, {"type": "Feature", "geometry": {"type": "Point", "coordinates": [2.7020542000413457, 6.425157699568217]}, "properties": {"osm_id": "2473306985", "code": 1003, "fclass": "village", "population": 0, "name": "Kpoguidi"}}, {"type": "Feature", "geometry": {"type": "Point", "coordinates": [3.126236999637854, 6.440259899574755]}, "properties": {"osm_id": "2582327475", "code": 1003, "fclass": "village", "population": 0, "name": "Igando"}}, {"type": "Feature", "geometry": {"type": "Point", "coordinates": [4.012738500381545, 6.579633500086004]}, "properties": {"osm_id": "2870966447", "code": 1003, "fclass": "village", "population": 0, "name": "Enuto"}}, {"type": "Feature", "geometry": {"type": "Point", "coordinates": [3.255840500338877, 6.449740700073278]}, "properties": {"osm_id": "3698552678", "code": 1002, "fclass": "town", "population": 0, "name": "Satellite Town"}}, {"type": "Feature", "geometry": {"type": "Point", "coordinates": [3.38362080005993, 6.558072999569333]}, "properties": {"osm_id": "3971371481", "code": 1010, "fclass": "suburb", "population": 0, "name": "Gbagada"}}, {"type": "Feature", "geometry": {"type": "Point", "coordinates": [3.5781821999486283, 6.453849099956074]}, "properties": {"osm_id": "5777682236", "code": 1010, "fclass": "suburb", "population": 0, "name": "Lekki Phase II"}}, {"type": "Feature", "geometry": {"type": "Point", "coordinates": [3.4280523003733947, 6.452343099754273]}, "properties": {"osm_id": "5908615078", "code": 1002, "fclass": "town", "population": 0, "name": "Ikoyi"}}, {"type": "Feature", "geometry": {"type": "Point", "coordinates": [3.9449645001116664, 6.558811600175261]}, "properties": {"osm_id": "6245672385", "code": 1002, "fclass": "town", "population": 0, "name": "Alaro City"}}, {"type": "Feature", "geometry": {"type": "Point", "coordinates": [3.2788692996784903, 6.406476400165786]}, "properties": {"osm_id": "6288951028", "code": 1003, "fclass": "village", "population": 0, "name": "Ilashe"}}, {"type": "Feature", "geometry": {"type": "Point", "coordinates": [3.2839374002908244, 6.468272700324917]}, "properties": {"osm_id": "6295450969", "code": 1010, "fclass": "suburb", "population": 0, "name": "Festac"}}, {"type": "Feature", "geometry": {"type": "Point", "coordinates": [3.329672799759976, 6.419078199799117]}, "properties": {"osm_id": "7325510297", "code": 1003, "fclass": "village", "population": 0, "name": "Igbologun"}}, {"type": "Feature", "geometry": {"type": "Point", "coordinates": [3.248696400218762, 6.499120899809725]}, "properties": {"osm_id": "7352827282", "code": 1003, "fclass": "village", "population": 0, "name": "Ijeododo"}}, {"type": "Feature", "geometry": {"type": "Point", "coordinates": [3.520632199916122, 6.455035800361941]}, "properties": {"osm_id": "7367088918", "code": 1003, "fclass": "village", "population": 0, "name": "Ojomu"}}, {"type": "Feature", "geometry": {"type": "Point", "coordinates": [2.8505747996873083, 6.423225499856983]}, "properties": {"osm_id": "12547777021", "code": 1003, "fclass": "village", "population": 0, "name": "Ganyingbo"}}, {"type": "Feature", "geometry": {"type": "Point", "coordinates": [2.841819699919256, 6.416601199785589]}, "properties": {"osm_id": "12547777078", "code": 1003, "fclass": "village", "population": 0, "name": "Gan'ingbo"}}, {"type": "Feature", "geometry": {"type": "Point", "coordinates": [2.8625351003146875, 6.4399075002310155]}, "properties": {"osm_id": "12547777109", "code": 1003, "fclass": "village", "population": 0, "name": "Iyafin"}}, {"type": "Feature", "geometry": {"type": "Point", "coordinates": [3.351279500248779, 6.556559099722733]}, "properties": {"osm_id": "13136676804", "code": 1010, "fclass": "suburb", "population": 0, "name": "Oshodi"}}, {"type": "Feature", "geometry": {"type": "Point", "coordinates": [3.392336700178646, 6.495852499992907]}, "properties": {"osm_id": "13176760049", "code": 1010, "fclass": "suburb", "population": 0, "name": "Makoko"}}, {"type": "Feature", "geometry": {"type": "Point", "coordinates": [3.4900252004027266, 6.473005299854776]}, "properties": {"osm_id": "13176782712", "code": 1020, "fclass": "island", "population": 0, "name": "Orange Island"}}, {"type": "Feature", "geometry": {"type": "Point", "coordinates": [3.483246900424149, 6.4661533004345415]}, "properties": {"osm_id": "13176785059", "code": 1020, "fclass": "island", "population": 0, "name": "Lekki Foreshore"}}, {"type": "Feature", "geometry": {"type": "Point", "coordinates": [4.000415700124506, 6.530768399642]}, "properties": {"osm_id": "13182173449", "code": 1010, "fclass": "suburb", "population": 0, "name": "Lekki Free Trade Zone"}}, {"type": "Feature", "geometry": {"type": "Point", "coordinates": [4.1309557997703905, 6.4081775001915275]}, "properties": {"osm_id": "13182173454", "code": 1010, "fclass": "suburb", "population": 0, "name": "Apakin"}}, {"type": "Feature", "geometry": {"type": "Point", "coordinates": [3.4704698004409806, 6.441398700289824]}, "properties": {"osm_id": "13235411954", "code": 1010, "fclass": "suburb", "population": 0, "name": "Lekki Phase I"}}, {"type": "Feature", "geometry": {"type": "Point", "coordinates": [3.3592828998859545, 6.55505449976539]}, "properties": {"osm_id": "13235411955", "code": 1010, "fclass": "suburb", "population": 0, "name": "Ilupeju"}}, {"type": "Feature", "geometry": {"type": "Point", "coordinates": [3.3867915002276163, 6.526830799901518]}, "properties": {"osm_id": "13236892515", "code": 1010, "fclass": "suburb", "population": 0, "name": "Akoka"}}, {"type": "Feature", "geometry": {"type": "Point", "coordinates": [3.3622370001374975, 6.446904599867423]}, "properties": {"osm_id": "13236892516", "code": 1010, "fclass": "suburb", "population": 0, "name": "Apapa"}}, {"type": "Feature", "geometry": {"type": "Point", "coordinates": [3.333510199735997, 6.448156299673542]}, "properties": {"osm_id": "13236892517", "code": 1010, "fclass": "suburb", "population": 0, "name": "Ajegunle"}}, {"type": "Feature", "geometry": {"type": "Point", "coordinates": [3.521492299829845, 6.47665429995601]}, "properties": {"osm_id": "13255266872", "code": 1020, "fclass": "island", "population": 0, "name": "Gracefield Island"}}, {"type": "Feature", "geometry": {"type": "Point", "coordinates": [3.704557100329964, 6.469714800098018]}, "properties": {"osm_id": "13438564580", "code": 1010, "fclass": "suburb", "population": 0, "name": "Awoyaya"}}, {"type": "Feature", "geometry": {"type": "Point", "coordinates": [3.8543393004184168, 6.440923399595249]}, "properties": {"osm_id": "13438564581", "code": 1010, "fclass": "suburb", "population": 0, "name": "Eleko"}}, {"type": "Feature", "geometry": {"type": "Point", "coordinates": [3.5080182000799027, 6.434419400035324]}, "properties": {"osm_id": "13438579460", "code": 1010, "fclass": "suburb", "population": 0, "name": "Jakande"}}, {"type": "Feature", "geometry": {"type": "Point", "coordinates": [3.5926860998836787, 6.427072400271129]}, "properties": {"osm_id": "13438579461", "code": 1010, "fclass": "suburb", "population": 0, "name": "Okun-Ajah"}}, {"type": "Feature", "geometry": {"type": "Point", "coordinates": [3.305962899768076, 6.50303779985461]}, "properties": {"osm_id": "13438611760", "code": 1010, "fclass": "suburb", "population": 0, "name": "Ago Palace"}}, {"type": "Feature", "geometry": {"type": "Point", "coordinates": [3.3217586002792245, 6.507402199851697]}, "properties": {"osm_id": "13438611761", "code": 1010, "fclass": "suburb", "population": 0, "name": "Cele"}}, {"type": "Feature", "geometry": {"type": "Point", "coordinates": [3.350870100075099, 6.527583699727984]}, "properties": {"osm_id": "13439326189", "code": 1010, "fclass": "suburb", "population": 0, "name": "Mushin"}}, {"type": "Feature", "geometry": {"type": "Point", "coordinates": [3.3279726997803323, 6.500365899666576]}, "properties": {"osm_id": "13439326192", "code": 1010, "fclass": "suburb", "population": 0, "name": "Ijesha"}}, {"type": "Feature", "geometry": {"type": "Point", "coordinates": [4.208092700317934, 6.391801299890119]}, "properties": {"osm_id": "13597473994", "code": 1003, "fclass": "village", "population": 0, "name": "Folu"}}, {"type": "Feature", "geometry": {"type": "Point", "coordinates": [3.3187800996219607, 6.52850860029173]}, "properties": {"osm_id": "13615594755", "code": 1010, "fclass": "suburb", "population": 0, "name": "Isolo"}}, {"type": "Feature", "geometry": {"type": "Point", "coordinates": [3.337418600288231, 6.557129000103316]}, "properties": {"osm_id": "13615594757", "code": 1010, "fclass": "suburb", "population": 0, "name": "Mafoluku Oshodi"}}, {"type": "Feature", "geometry": {"type": "Point", "coordinates": [3.8082323001805776, 6.4706068996887325]}, "properties": {"osm_id": "13633291284", "code": 1010, "fclass": "suburb", "population": 0, "name": "Ibeju-Lekki"}}]}